{"type": "FeatureCollection", "features": [ {"type": "Feature", "properties": {"norad_id": 30435, "name": "FENGYUN 1C DEB", "group": "fengyun-1c-debris", "lat": 70.47012287960884, "lon": -167.24057562922297, "alt_km": 827.7793687867616, "timestamp": "2025-12-26T12:57:39.549198+00:00", "meta": {"OBJECT_NAME": "FENGYUN 1C DEB", "OBJECT_ID": "1999-025AEW", "EPOCH": "2025-12-26T06:05:14.538336", "MEAN_MOTION": 13.79668976, "ECCENTRICITY": 0.0208962, "INCLINATION": 99.018, "RA_OF_ASC_NODE": 345.8898, "ARG_OF_PERICENTER": 75.6743, "MEAN_ANOMALY": 48.6866, "EPHEMERIS_TYPE": 0, "CLASSIFICATION_TYPE": "U", "NORAD_CAT_ID": 30435, "ELEMENT_SET_NO": 999, "REV_AT_EPOCH": 94346, "BSTAR": 0.0016030995, "MEAN_MOTION_DOT": 1.91e-05, "MEAN_MOTION_DDOT": 0}, "tle": {"line1": "1 30435U 99025AEW 25360.25364049  .00001910  00000+0  16031-2 0  9992", "line2": "2 30435  99.0180 345.8898 0208962  75.6743  48.6866 13.79668976943464"}}, "geometry": {"type": "Point", "coordinates": [-167.24057562922297, 70.47012287960884]}}, {"type": "Feature", "properties": {"norad_id": 30436, "name": "FENGYUN 1C DEB", "group": "fengyun-1c-debris", "lat": 63.70394609031395, "lon": 91.39512174186119, "alt_km": 745.0830222752775, "timestamp": "2025-12-26T12:57:39.549208+00:00", "meta": {"OBJECT_NAME": "FENGYUN 1C DEB", "OBJECT_ID": "1999-025AEX", "EPOCH": "2025-12-26T04:41:21.219072", "MEAN_MOTION": 14.22406479, "ECCENTRICITY": 0.0098448, "INCLINATION": 98.4268, "RA_OF_ASC_NODE": 253.6084, "ARG_OF_PERICENTER": 94.1968, "MEAN_ANOMALY": 56.4742, "EPHEMERIS_TYPE": 0, "CLASSIFICATION_TYPE": "U", "NORAD_CAT_ID": 30436, "ELEMENT_SET_NO": 999, "REV_AT_EPOCH": 96628, "BSTAR": 0.0019827026, "MEAN_MOTION_DOT": 4.601e-05, "MEAN_MOTION_DDOT": 0}, "tle": {"line1": "1 30436U 99025AEX 25360.19538448  .00004601  00000+0  19827-2 0  9998", "line2": "2 30436  98.4268 253.6084 0098448  94.1968  56.4742 14.22406479966281"}}, "geometry": {"type": "Point", "coordinates": [91.39512174186119, 63.70394609031395]}}, {"type": "Feature", "properties": {"norad_id": 30437, "name": "FENGYUN 1C DEB", "group": "fengyun-1c-debris", "lat": -52.19873843805154, "lon": -169.66090568383765, "alt_km": 633.7872378186457, "timestamp": "2025-12-26T12:57:39.549218+00:00", "meta": {"OBJECT_NAME": "FENGYUN 1C DEB", "OBJECT_ID": "1999-025AEY", "EPOCH": "2025-12-25T07:27:16.068960", "MEAN_MOTION": 14.8853895, "ECCENTRICITY": 0.0035321, "INCLINATION": 98.9209, "RA_OF_ASC_NODE": 20.6389, "ARG_OF_PERICENTER": 63.1528, "MEAN_ANOMALY": 65.4069, "EPHEMERIS_TYPE": 0, "CLASSIFICATION_TYPE": "U", "NORAD_CAT_ID": 30437, "ELEMENT_SET_NO": 999, "REV_AT_EPOCH": 99374, "BSTAR": 0.0023199, "MEAN_MOTION_DOT": 0.0002182, "MEAN_MOTION_DDOT": 0}, "tle": {"line1": "1 30437U 99025AEY 25359.31060265  .00021820  00000+0  23199-2 0  9997", "line2": "2 30437  98.9209  20.6389 0035321  63.1528  65.4069 14.88538950993746"}}, "geometry": {"type": "Point", "coordinates": [-169.66090568383765, -52.19873843805154]}}, {"type": "Feature", "properties": {"norad_id": 30438, "name": "FENGYUN 1C DEB", "group": "fengyun-1c-debris", "lat": -46.74127006508494, "lon": 26.219435951571754, "alt_km": 1022.2048902040324, "timestamp": "2025-12-26T12:57:39.549228+00:00", "meta": {"OBJECT_NAME": "FENGYUN 1C DEB", "OBJECT_ID": "1999-025AEZ", "EPOCH": "2025-12-25T00:58:15.685248", "MEAN_MOTION": 13.92140653, "ECCENTRICITY": 0.01348772, "INCLINATION": 98.7499, "RA_OF_ASC_NODE": 15.3837, "ARG_OF_PERICENTER": 153.1315, "MEAN_ANOMALY": 207.6915, "EPHEMERIS_TYPE": 0, "CLASSIFICATION_TYPE": "U", "NORAD_CAT_ID": 30438, "ELEMENT_SET_NO": 999, "REV_AT_EPOCH": 95477, "BSTAR": 0.001231799, "MEAN_MOTION_DOT": 1.658e-05, "MEAN_MOTION_DDOT": 0}, "tle": {"line1": "1 30438U 99025AEZ 25359.04045932  .00001658  00000+0  12318-2 0  9990", "line2": "2 30438  98.7499  15.3837 0134877 153.1315 207.6915 13.92140653954778"}}, "geometry": {"type": "Point", "coordinates": [26.219435951571754, -46.74127006508494]}}, {"type": "Feature", "properties": {"norad_id": 30439, "name": "FENGYUN 1C DEB", "group": "fengyun-1c-debris", "lat": -9.253963963777885, "lon": 13.287486642066565, "alt_km": 850.7188839622113, "timestamp": "2025-12-26T12:57:39.549238+00:00", "meta": {"OBJECT_NAME": "FENGYUN 1C DEB", "OBJECT_ID": "1999-025AFA", "EPOCH": "2025-12-24T23:50:12.384096", "MEAN_MOTION": 14.08860456, "ECCENTRICITY": 0.00383093, "INCLINATION": 98.7498, "RA_OF_ASC_NODE": 10.3483, "ARG_OF_PERICENTER": 301.6103, "MEAN_ANOMALY": 127.7277, "EPHEMERIS_TYPE": 0, "CLASSIFICATION_TYPE": "U", "NORAD_CAT_ID": 30439, "ELEMENT_SET_NO": 999, "REV_AT_EPOCH": 96964, "BSTAR": 0.00048908313, "MEAN_MOTION_DOT": 8.07e-06, "MEAN_MOTION_DDOT": 0}, "tle": {"line1": "1 30439U 99025AFA 25358.99319889  .00000807  00000+0  48908-3 0  9999", "line2": "2 30439  98.7498  10.3483 0038309 301.6103 127.7277 14.08860456969641"}}, "geometry": {"type": "Point", "coordinates": [13.287486642066565, -9.253963963777885]}}, {"type": "Feature", "properties": {"norad_id": 30441, "name": "FENGYUN 1C DEB", "group": "fengyun-1c-debris", "lat": -72.03782002679776, "lon": -120.36729817701855, "alt_km": 865.3550648215005, "timestamp": "2025-12-26T12:57:39.549258+00:00", "meta": {"OBJECT_NAME": "FENGYUN 1C DEB", "OBJECT_ID": "1999-025AFC", "EPOCH": "2025-12-26T04:45:23.222016", "MEAN_MOTION": 13.77696194, "ECCENTRICITY": 0.01844261, "INCLINATION": 99.1338, "RA_OF_ASC_NODE": 89.0557, "ARG_OF_PERICENTER": 221.9685, "MEAN_ANOMALY": 136.721, "EPHEMERIS_TYPE": 0, "CLASSIFICATION_TYPE": "U", "NORAD_CAT_ID": 30441, "ELEMENT_SET_NO": 999, "REV_AT_EPOCH": 95055, "BSTAR": 0.00061386115, "MEAN_MOTION_DOT": 6.52e-06, "MEAN_MOTION_DDOT": 0}, "tle": {"line1": "1 30441U 99025AFC 25360.19818544  .00000652  00000+0  61386-3 0  9992", "line2": "2 30441  99.1338  89.0557 0184426 221.9685 136.7210 13.77696194950556"}}, "geometry": {"type": "Point", "coordinates": [-120.36729817701855, -72.03782002679776]}}, {"type": "Feature", "properties": {"norad_id": 30442, "name": "FENGYUN 1C DEB", "group": "fengyun-1c-debris", "lat": -46.97710447573398, "lon": 103.98746049155989, "alt_km": 785.5528089556583, "timestamp": "2025-12-26T12:57:39.549269+00:00", "meta": {"OBJECT_NAME": "FENGYUN 1C DEB", "OBJECT_ID": "1999-025AFD", "EPOCH": "2025-12-26T04:46:48.625824", "MEAN_MOTION": 14.28746883, "ECCENTRICITY": 0.00559881, "INCLINATION": 98.8657, "RA_OF_ASC_NODE": 94.0135, "ARG_OF_PERICENTER": 248.27, "MEAN_ANOMALY": 111.2516, "EPHEMERIS_TYPE": 0, "CLASSIFICATION_TYPE": "U", "NORAD_CAT_ID": 30442, "ELEMENT_SET_NO": 999, "REV_AT_EPOCH": 97354, "BSTAR": 0.002282655, "MEAN_MOTION_DOT": 5.801e-05, "MEAN_MOTION_DDOT": 0}, "tle": {"line1": "1 30442U 99025AFD 25360.19917391  .00005801  00000+0  22827-2 0  9990", "line2": "2 30442  98.8657  94.0135 0055988 248.2700 111.2516 14.28746883973544"}}, "geometry": {"type": "Point", "coordinates": [103.98746049155989, -46.97710447573398]}}, {"type": "Feature", "properties": {"norad_id": 30443, "name": "FENGYUN 1C DEB", "group": "fengyun-1c-debris", "lat": 15.739093672486309, "lon": 130.55639428790025, "alt_km": 782.6764593454745, "timestamp": "2025-12-26T12:57:39.549279+00:00", "meta": {"OBJECT_NAME": "FENGYUN 1C DEB", "OBJECT_ID": "1999-025AFE", "EPOCH": "2025-12-25T19:29:12.989760", "MEAN_MOTION": 14.36966617, "ECCENTRICITY": 0.00265438, "INCLINATION": 98.8498, "RA_OF_ASC_NODE": 307.2915, "ARG_OF_PERICENTER": 301.5556, "MEAN_ANOMALY": 58.3038, "EPHEMERIS_TYPE": 0, "CLASSIFICATION_TYPE": "U", "NORAD_CAT_ID": 30443, "ELEMENT_SET_NO": 999, "REV_AT_EPOCH": 97621, "BSTAR": 0.0024847466, "MEAN_MOTION_DOT": 7.351e-05, "MEAN_MOTION_DDOT": 0}, "tle": {"line1": "1 30443U 99025AFE 25359.81195590  .00007351  00000+0  24847-2 0  9993", "line2": "2 30443  98.8498 307.2915 0026543 301.5556  58.3038 14.36966617976215"}}, "geometry": {"type": "Point", "coordinates": [130.55639428790025, 15.739093672486309]}}, {"type": "Feature", "properties": {"norad_id": 30445, "name": "FENGYUN 1C DEB", "group": "fengyun-1c-debris", "lat": 16.96756632446701, "lon": -50.18645699837792, "alt_km": 672.7237602747973, "timestamp": "2025-12-26T12:57:39.549290+00:00", "meta": {"OBJECT_NAME": "FENGYUN 1C DEB", "OBJECT_ID": "1999-025AFG", "EPOCH": "2025-12-25T20:18:31.781088", "MEAN_MOTION": 14.48823409, "ECCENTRICITY": 0.01050753, "INCLINATION": 98.8372, "RA_OF_ASC_NODE": 311.8082, "ARG_OF_PERICENTER": 339.0324, "MEAN_ANOMALY": 20.6574, "EPHEMERIS_TYPE": 0, "CLASSIFICATION_TYPE": "U", "NORAD_CAT_ID": 30445, "ELEMENT_SET_NO": 999, "REV_AT_EPOCH": 99374, "BSTAR": 0.00085882588, "MEAN_MOTION_DOT": 3.427e-05, "MEAN_MOTION_DDOT": 0}, "tle": {"line1": "1 30445U 99025AFG 25359.84620117  .00003427  00000+0  85883-3 0  9994", "line2": "2 30445  98.8372 311.8082 0105075 339.0324  20.6574 14.48823409993749"}}, "geometry": {"type": "Point", "coordinates": [-50.18645699837792, 16.96756632446701]}}, {"type": "Feature", "properties": {"norad_id": 30446, "name": "FENGYUN 1C DEB", "group": "fengyun-1c-debris", "lat": -41.874321329087806, "lon": 91.03789430273419, "alt_km": 752.8319100642148, "timestamp": "2025-12-26T12:57:39.549300+00:00", "meta": {"OBJECT_NAME": "FENGYUN 1C DEB", "OBJECT_ID": "1999-025AFH", "EPOCH": "2025-12-26T04:50:48.680448", "MEAN_MOTION": 14.44871187, "ECCENTRICITY": 0.00338771, "INCLINATION": 98.6125, "RA_OF_ASC_NODE": 82.8868, "ARG_OF_PERICENTER": 57.9586, "MEAN_ANOMALY": 302.4887, "EPHEMERIS_TYPE": 0, "CLASSIFICATION_TYPE": "U", "NORAD_CAT_ID": 30446, "ELEMENT_SET_NO": 999, "REV_AT_EPOCH": 98371, "BSTAR": 0.001629175, "MEAN_MOTION_DOT": 5.667e-05, "MEAN_MOTION_DDOT": 0}, "tle": {"line1": "1 30446U 99025AFH 25360.20195232  .00005667  00000+0  16292-2 0  9997", "line2": "2 30446  98.6125  82.8868 0033877  57.9586 302.4887 14.44871187983713"}}, "geometry": {"type": "Point", "coordinates": [91.03789430273419, -41.874321329087806]}}]}